[
  {
    "COMMENT": "GENERATED VIA SPACETRACK.ORG API",
    "ORIGINATOR": "JSPOC",
    "NORAD_CAT_ID": "40076",
    "OBJECT_NAME": "TDS 1",
    "OBJECT_TYPE": "PAYLOAD",
    "CLASSIFICATION_TYPE": "U",
    "INTLDES": "14037H",
    "EPOCH": "2016-11-06 11:12:14",
    "EPOCH_MICROSECONDS": "673600",
    "MEAN_MOTION": "14.81275482",
    "ECCENTRICITY": "0.0007312",
    "INCLINATION": "98.3259",
    "RA_OF_ASC_NODE": "47.918",
    "ARG_OF_PERICENTER": "71.166",
    "MEAN_ANOMALY": "289.0346",
    "EPHEMERIS_TYPE": "0",
    "ELEMENT_SET_NO": "999",
    "REV_AT_EPOCH": "12605",
    "BSTAR": "2.7544e-05",
    "MEAN_MOTION_DOT": "1.57e-06",
    "MEAN_MOTION_DDOT": "0",
    "FILE": "2109984",
    "TLE_LINE0": "0 TDS 1",
    "TLE_LINE1": "1 40076U 14037H   16311.46683650  .00000157  00000-0  27544-4 0  9991",
    "TLE_LINE2": "2 40076  98.3259  47.9180 0007312  71.1660 289.0346 14.81275482126056",
    "OBJECT_ID": "2014-037H",
    "OBJECT_NUMBER": "40076",
    "SEMIMAJOR_AXIS": "7003.437",
    "PERIOD": "97.213",
    "APOGEE": "630.423",
    "PERIGEE": "620.182"
  },
  {
    "COMMENT": "GENERATED VIA SPACETRACK.ORG API",
    "ORIGINATOR": "JSPOC",
    "NORAD_CAT_ID": "40076",
    "OBJECT_NAME": "TDS 1",
    "OBJECT_TYPE": "PAYLOAD",
    "CLASSIFICATION_TYPE": "U",
    "INTLDES": "14037H",
    "EPOCH": "2016-11-06 19:18:36",
    "EPOCH_MICROSECONDS": "300384",
    "MEAN_MOTION": "14.81275721",
    "ECCENTRICITY": "0.0007315",
    "INCLINATION": "98.3259",
    "RA_OF_ASC_NODE": "48.2689",
    "ARG_OF_PERICENTER": "70.3258",
    "MEAN_ANOMALY": "289.8747",
    "EPHEMERIS_TYPE": "0",
    "ELEMENT_SET_NO": "999",
    "REV_AT_EPOCH": "12610",
    "BSTAR": "2.91e-05",
    "MEAN_MOTION_DOT": "1.7e-06",
    "MEAN_MOTION_DDOT": "0",
    "FILE": "2110123",
    "TLE_LINE0": "0 TDS 1",
    "TLE_LINE1": "1 40076U 14037H   16311.80458681  .00000170  00000-0  29100-4 0  9998",
    "TLE_LINE2": "2 40076  98.3259  48.2689 0007315  70.3258 289.8747 14.81275721126106",
    "OBJECT_ID": "2014-037H",
    "OBJECT_NUMBER": "40076",
    "SEMIMAJOR_AXIS": "7003.437",
    "PERIOD": "97.213",
    "APOGEE": "630.425",
    "PERIGEE": "620.179"
  },
  {
    "COMMENT": "GENERATED VIA SPACETRACK.ORG API",
    "ORIGINATOR": "JSPOC",
    "NORAD_CAT_ID": "40076",
    "OBJECT_NAME": "TDS 1",
    "OBJECT_TYPE": "PAYLOAD",
    "CLASSIFICATION_TYPE": "U",
    "INTLDES": "14037H",
    "EPOCH": "2016-11-07 03:24:57",
    "EPOCH_MICROSECONDS": "953088",
    "MEAN_MOTION": "14.81275577",
    "ECCENTRICITY": "0.0007319",
    "INCLINATION": "98.3259",
    "RA_OF_ASC_NODE": "48.6196",
    "ARG_OF_PERICENTER": "69.4978",
    "MEAN_ANOMALY": "290.7015",
    "EPHEMERIS_TYPE": "0",
    "ELEMENT_SET_NO": "999",
    "REV_AT_EPOCH": "12615",
    "BSTAR": "2.5598e-05",
    "MEAN_MOTION_DOT": "1.42e-06",
    "MEAN_MOTION_DDOT": "0",
    "FILE": "2110239",
    "TLE_LINE0": "0 TDS 1",
    "TLE_LINE1": "1 40076U 14037H   16312.14233742  .00000142  00000-0  25598-4 0  9991",
    "TLE_LINE2": "2 40076  98.3259  48.6196 0007319  69.4978 290.7015 14.81275577126158",
    "OBJECT_ID": "2014-037H",
    "OBJECT_NUMBER": "40076",
    "SEMIMAJOR_AXIS": "7003.437",
    "PERIOD": "97.213",
    "APOGEE": "630.428",
    "PERIGEE": "620.176"
  },
  {
    "COMMENT": "GENERATED VIA SPACETRACK.ORG API",
    "ORIGINATOR": "JSPOC",
    "NORAD_CAT_ID": "40076",
    "OBJECT_NAME": "TDS 1",
    "OBJECT_TYPE": "PAYLOAD",
    "CLASSIFICATION_TYPE": "U",
    "INTLDES": "14037H",
    "EPOCH": "2016-11-07 11:31:19",
    "EPOCH_MICROSECONDS": "576416",
    "MEAN_MOTION": "14.81275712",
    "ECCENTRICITY": "0.0007296",
    "INCLINATION": "98.3259",
    "RA_OF_ASC_NODE": "48.9704",
    "ARG_OF_PERICENTER": "68.601",
    "MEAN_ANOMALY": "291.5978",
    "EPHEMERIS_TYPE": "0",
    "ELEMENT_SET_NO": "999",
    "REV_AT_EPOCH": "12620",
    "BSTAR": "2.5281e-05",
    "MEAN_MOTION_DOT": "1.4e-06",
    "MEAN_MOTION_DDOT": "0",
    "FILE": "2110385",
    "TLE_LINE0": "0 TDS 1",
    "TLE_LINE1": "1 40076U 14037H   16312.48008769  .00000140  00000-0  25281-4 0  9994",
    "TLE_LINE2": "2 40076  98.3259  48.9704 0007296  68.6010 291.5978 14.81275712126202",
    "OBJECT_ID": "2014-037H",
    "OBJECT_NUMBER": "40076",
    "SEMIMAJOR_AXIS": "7003.437",
    "PERIOD": "97.213",
    "APOGEE": "630.411",
    "PERIGEE": "620.192"
  },
  {
    "COMMENT": "GENERATED VIA SPACETRACK.ORG API",
    "ORIGINATOR": "JSPOC",
    "NORAD_CAT_ID": "40076",
    "OBJECT_NAME": "TDS 1",
    "OBJECT_TYPE": "PAYLOAD",
    "CLASSIFICATION_TYPE": "U",
    "INTLDES": "14037H",
    "EPOCH": "2016-11-07 19:37:41",
    "EPOCH_MICROSECONDS": "201472",
    "MEAN_MOTION": "14.81276065",
    "ECCENTRICITY": "0.0007309",
    "INCLINATION": "98.3258",
    "RA_OF_ASC_NODE": "49.3211",
    "ARG_OF_PERICENTER": "67.6832",
    "MEAN_ANOMALY": "292.5163",
    "EPHEMERIS_TYPE": "0",
    "ELEMENT_SET_NO": "999",
    "REV_AT_EPOCH": "12625",
    "BSTAR": "2.8607e-05",
    "MEAN_MOTION_DOT": "1.66e-06",
    "MEAN_MOTION_DDOT": "0",
    "FILE": "2110540",
    "TLE_LINE0": "0 TDS 1",
    "TLE_LINE1": "1 40076U 14037H   16312.81783798  .00000166  00000-0  28607-4 0  9996",
    "TLE_LINE2": "2 40076  98.3258  49.3211 0007309  67.6832 292.5163 14.81276065126259",
    "OBJECT_ID": "2014-037H",
    "OBJECT_NUMBER": "40076",
    "SEMIMAJOR_AXIS": "7003.436",
    "PERIOD": "97.213",
    "APOGEE": "630.419",
    "PERIGEE": "620.182"
  },
  {
    "COMMENT": "GENERATED VIA SPACETRACK.ORG API",
    "ORIGINATOR": "JSPOC",
    "NORAD_CAT_ID": "40076",
    "OBJECT_NAME": "TDS 1",
    "OBJECT_TYPE": "PAYLOAD",
    "CLASSIFICATION_TYPE": "U",
    "INTLDES": "14037H",
    "EPOCH": "2016-11-08 03:44:02",
    "EPOCH_MICROSECONDS": "833440",
    "MEAN_MOTION": "14.81275947",
    "ECCENTRICITY": "0.0007295",
    "INCLINATION": "98.3258",
    "RA_OF_ASC_NODE": "49.672",
    "ARG_OF_PERICENTER": "66.9116",
    "MEAN_ANOMALY": "293.2856",
    "EPHEMERIS_TYPE": "0",
    "ELEMENT_SET_NO": "999",
    "REV_AT_EPOCH": "12630",
    "BSTAR": "2.5982e-05",
    "MEAN_MOTION_DOT": "1.45e-06",
    "MEAN_MOTION_DDOT": "0",
    "FILE": "2110676",
    "TLE_LINE0": "0 TDS 1",
    "TLE_LINE1": "1 40076U 14037H   16313.15558835  .00000145  00000-0  25982-4 0  9996",
    "TLE_LINE2": "2 40076  98.3258  49.6720 0007295  66.9116 293.2856 14.81275947126309",
    "OBJECT_ID": "2014-037H",
    "OBJECT_NUMBER": "40076",
    "SEMIMAJOR_AXIS": "7003.436",
    "PERIOD": "97.213",
    "APOGEE": "630.410",
    "PERIGEE": "620.192"
  },
  {
    "COMMENT": "GENERATED VIA SPACETRACK.ORG API",
    "ORIGINATOR": "JSPOC",
    "NORAD_CAT_ID": "40076",
    "OBJECT_NAME": "TDS 1",
    "OBJECT_TYPE": "PAYLOAD",
    "CLASSIFICATION_TYPE": "U",
    "INTLDES": "14037H",
    "EPOCH": "2016-11-08 11:50:24",
    "EPOCH_MICROSECONDS": "442080",
    "MEAN_MOTION": "14.81276146",
    "ECCENTRICITY": "0.0007273",
    "INCLINATION": "98.3257",
    "RA_OF_ASC_NODE": "50.0228",
    "ARG_OF_PERICENTER": "66.1647",
    "MEAN_ANOMALY": "294.0323",
    "EPHEMERIS_TYPE": "0",
    "ELEMENT_SET_NO": "999",
    "REV_AT_EPOCH": "12635",
    "BSTAR": "2.6541e-05",
    "MEAN_MOTION_DOT": "1.5e-06",
    "MEAN_MOTION_DDOT": "0",
    "FILE": "2110805",
    "TLE_LINE0": "0 TDS 1",
    "TLE_LINE1": "1 40076U 14037H   16313.49333845  .00000150  00000-0  26541-4 0  9993",
    "TLE_LINE2": "2 40076  98.3257  50.0228 0007273  66.1647 294.0323 14.81276146126359",
    "OBJECT_ID": "2014-037H",
    "OBJECT_NUMBER": "40076",
    "SEMIMAJOR_AXIS": "7003.435",
    "PERIOD": "97.213",
    "APOGEE": "630.394",
    "PERIGEE": "620.207"
  },
  {
    "COMMENT": "GENERATED VIA SPACETRACK.ORG API",
    "ORIGINATOR": "JSPOC",
    "NORAD_CAT_ID": "40076",
    "OBJECT_NAME": "TDS 1",
    "OBJECT_TYPE": "PAYLOAD",
    "CLASSIFICATION_TYPE": "U",
    "INTLDES": "14037H",
    "EPOCH": "2016-11-08 18:19:29",
    "EPOCH_MICROSECONDS": "738496",
    "MEAN_MOTION": "14.81276368",
    "ECCENTRICITY": "0.0007284",
    "INCLINATION": "98.3257",
    "RA_OF_ASC_NODE": "50.3032",
    "ARG_OF_PERICENTER": "65.2476",
    "MEAN_ANOMALY": "294.9493",
    "EPHEMERIS_TYPE": "0",
    "ELEMENT_SET_NO": "999",
    "REV_AT_EPOCH": "12639",
    "BSTAR": "2.8322e-05",
    "MEAN_MOTION_DOT": "1.64e-06",
    "MEAN_MOTION_DDOT": "0",
    "FILE": "2110971",
    "TLE_LINE0": "0 TDS 1",
    "TLE_LINE1": "1 40076U 14037H   16313.76353864  .00000164  00000-0  28322-4 0  9990",
    "TLE_LINE2": "2 40076  98.3257  50.3032 0007284  65.2476 294.9493 14.81276368126394",
    "OBJECT_ID": "2014-037H",
    "OBJECT_NUMBER": "40076",
    "SEMIMAJOR_AXIS": "7003.435",
    "PERIOD": "97.213",
    "APOGEE": "630.401",
    "PERIGEE": "620.198"
  },
  {
    "COMMENT": "GENERATED VIA SPACETRACK.ORG API",
    "ORIGINATOR": "JSPOC",
    "NORAD_CAT_ID": "40076",
    "OBJECT_NAME": "TDS 1",
    "OBJECT_TYPE": "PAYLOAD",
    "CLASSIFICATION_TYPE": "U",
    "INTLDES": "14037H",
    "EPOCH": "2016-11-09 04:03:07",
    "EPOCH_MICROSECONDS": "725024",
    "MEAN_MOTION": "14.81276219",
    "ECCENTRICITY": "0.0007265",
    "INCLINATION": "98.3255",
    "RA_OF_ASC_NODE": "50.724",
    "ARG_OF_PERICENTER": "64.2446",
    "MEAN_ANOMALY": "295.952",
    "EPHEMERIS_TYPE": "0",
    "ELEMENT_SET_NO": "999",
    "REV_AT_EPOCH": "12645",
    "BSTAR": "2.4747e-05",
    "MEAN_MOTION_DOT": "1.36e-06",
    "MEAN_MOTION_DDOT": "0",
    "FILE": "2111109",
    "TLE_LINE0": "0 TDS 1",
    "TLE_LINE1": "1 40076U 14037H   16314.16883941  .00000136  00000-0  24747-4 0  9995",
    "TLE_LINE2": "2 40076  98.3255  50.7240 0007265  64.2446 295.9520 14.81276219126456",
    "OBJECT_ID": "2014-037H",
    "OBJECT_NUMBER": "40076",
    "SEMIMAJOR_AXIS": "7003.435",
    "PERIOD": "97.213",
    "APOGEE": "630.388",
    "PERIGEE": "620.212"
  }
]
